{
    "links": {
        "self": "http://www.neowsapp.com/rest/v1/neo/54049793?api_key=iIulBulltgU6a56xZRHN4H3l9WmuAYTsLGpBGhQ2"
    },
    "id": "54049793",
    "neo_reference_id": "54049793",
    "name": "(2020 OX4)",
    "designation": "2020 OX4",
    "nasa_jpl_url": "http://ssd.jpl.nasa.gov/sbdb.cgi?sstr=54049793",
    "absolute_magnitude_h": 24.562,
    "estimated_diameter": {
        "kilometers": {
            "estimated_diameter_min": 0.0325203324,
            "estimated_diameter_max": 0.072717674
        },
        "meters": {
            "estimated_diameter_min": 32.5203324456,
            "estimated_diameter_max": 72.7176739992
        },
        "miles": {
            "estimated_diameter_min": 0.0202071915,
            "estimated_diameter_max": 0.0451846538
        },
        "feet": {
            "estimated_diameter_min": 106.6940075008,
            "estimated_diameter_max": 238.5750535636
        }
    },
    "is_potentially_hazardous_asteroid": false,
    "close_approach_data": [
        {
            "close_approach_date": "1981-10-08",
            "close_approach_date_full": "1981-Oct-08 22:29",
            "epoch_date_close_approach": 371428140000,
            "relative_velocity": {
                "kilometers_per_second": "18.1500778943",
                "kilometers_per_hour": "65340.280419413",
                "miles_per_hour": "40599.9092417181"
            },
            "miss_distance": {
                "astronomical": "0.0650440716",
                "lunar": "25.3021438524",
                "kilometers": "9730454.567487492",
                "miles": "6046224.1010997096"
            },
            "orbiting_body": "Mars"
        },
        {
            "close_approach_date": "2017-02-06",
            "close_approach_date_full": "2017-Feb-06 12:47",
            "epoch_date_close_approach": 1486385220000,
            "relative_velocity": {
                "kilometers_per_second": "27.0682665452",
                "kilometers_per_hour": "97445.7595628741",
                "miles_per_hour": "60549.0054350536"
            },
            "miss_distance": {
                "astronomical": "0.3337299352",
                "lunar": "129.8209447928",
                "kilometers": "49925287.461158024",
                "miles": "31022135.1128437712"
            },
            "orbiting_body": "Earth"
        },
        {
            "close_approach_date": "2020-07-15",
            "close_approach_date_full": "2020-Jul-15 19:20",
            "epoch_date_close_approach": 1594840800000,
            "relative_velocity": {
                "kilometers_per_second": "16.2607967643",
                "kilometers_per_hour": "58538.8683516276",
                "miles_per_hour": "36373.7762821544"
            },
            "miss_distance": {
                "astronomical": "0.0326902496",
                "lunar": "12.7165070944",
                "kilometers": "4890391.709928352",
                "miles": "3038748.4999091776"
            },
            "orbiting_body": "Earth"
        },
        {
            "close_approach_date": "2084-02-16",
            "close_approach_date_full": "2084-Feb-16 10:28",
            "epoch_date_close_approach": 3601535280000,
            "relative_velocity": {
                "kilometers_per_second": "21.9286359257",
                "kilometers_per_hour": "78943.089332659",
                "miles_per_hour": "49052.1657022847"
            },
            "miss_distance": {
                "astronomical": "0.1604776559",
                "lunar": "62.4258081451",
                "kilometers": "24007115.505232933",
                "miles": "14917329.8491751554"
            },
            "orbiting_body": "Earth"
        }
    ],
    "orbital_data": {
        "orbit_id": "5",
        "orbit_determination_date": "2020-08-13 05:59:30",
        "first_observation_date": "2020-07-25",
        "last_observation_date": "2020-08-12",
        "data_arc_in_days": 18,
        "observations_used": 33,
        "orbit_uncertainty": "7",
        "minimum_orbit_intersection": ".00531452",
        "jupiter_tisserand_invariant": "3.369",
        "epoch_osculation": "2459000.5",
        "eccentricity": ".6559896395109596",
        "semi_major_axis": "2.170937389133011",
        "inclination": "4.594312998972625",
        "ascending_node_longitude": "119.6915602805599",
        "orbital_period": "1168.340346268865",
        "perihelion_distance": ".7468249538347834",
        "perihelion_argument": "105.5352391884348",
        "aphelion_distance": "3.595049824431239",
        "perihelion_time": "2459002.075053663015",
        "mean_anomaly": "359.5146796731825",
        "mean_motion": ".3081293915336163",
        "equinox": "J2000",
        "orbit_class": {
            "orbit_class_type": "APO",
            "orbit_class_description": "Near-Earth asteroid orbits which cross the Earth’s orbit similar to that of 1862 Apollo",
            "orbit_class_range": "a (semi-major axis) > 1.0 AU; q (perihelion) < 1.017 AU"
        }
    },
    "is_sentry_object": false
}